{"type": "FeatureCollection", "features": [ {"type": "Feature", "properties": {"norad_id": 52912, "name": "GAOFEN-12 03", "group": "resource", "lat": -29.584278886873317, "lon": -106.86093475701244, "alt_km": 636.0675649701034, "timestamp": "2025-12-27T15:27:10.801188+00:00", "meta": {"OBJECT_NAME": "GAOFEN-12 03", "OBJECT_ID": "2022-069A", "EPOCH": "2025-12-27T05:50:59.226720", "MEAN_MOTION": 14.79643454, "ECCENTRICITY": 0.00017103, "INCLINATION": 97.8473, "RA_OF_ASC_NODE": 248.2576, "ARG_OF_PERICENTER": 45.4878, "MEAN_ANOMALY": 314.6473, "EPHEMERIS_TYPE": 0, "CLASSIFICATION_TYPE": "U", "NORAD_CAT_ID": 52912, "ELEMENT_SET_NO": 999, "REV_AT_EPOCH": 18918, "BSTAR": 0.00018524487, "MEAN_MOTION_DOT": 1.339e-05, "MEAN_MOTION_DDOT": 0}, "tle": {"line1": "1 52912U 22069A   25361.24374105  .00001339  00000+0  18524-3 0  9999", "line2": "2 52912  97.8473 248.2576 0001710  45.4878 314.6473 14.79643454189180"}}, "geometry": {"type": "Point", "coordinates": [-106.86093475701244, -29.584278886873317]}}, {"type": "Feature", "properties": {"norad_id": 54754, "name": "SWOT", "group": "resource", "lat": 14.274249100144194, "lon": -89.92252098339347, "alt_km": 893.7924315390346, "timestamp": "2025-12-27T15:27:10.801198+00:00", "meta": {"OBJECT_NAME": "SWOT", "OBJECT_ID": "2022-173A", "EPOCH": "2025-12-27T05:05:38.242752", "MEAN_MOTION": 14.0016915, "ECCENTRICITY": 4.285e-05, "INCLINATION": 77.6106, "RA_OF_ASC_NODE": 267.4541, "ARG_OF_PERICENTER": 79.9961, "MEAN_ANOMALY": 280.1239, "EPHEMERIS_TYPE": 0, "CLASSIFICATION_TYPE": "U", "NORAD_CAT_ID": 54754, "ELEMENT_SET_NO": 999, "REV_AT_EPOCH": 15508, "BSTAR": 9.3658896e-05, "MEAN_MOTION_DOT": 1.36e-06, "MEAN_MOTION_DDOT": 0}, "tle": {"line1": "1 54754U 22173A   25361.21224818  .00000136  00000+0  93659-4 0  9990", "line2": "2 54754  77.6106 267.4541 0000428  79.9961 280.1239 14.00169150155089"}}, "geometry": {"type": "Point", "coordinates": [-89.92252098339347, 14.274249100144194]}}, {"type": "Feature", "properties": {"norad_id": 57654, "name": "GAOFEN-12 04", "group": "resource", "lat": 34.51286564692125, "lon": 102.6636953437093, "alt_km": 627.5568449728689, "timestamp": "2025-12-27T15:27:10.801209+00:00", "meta": {"OBJECT_NAME": "GAOFEN-12 04", "OBJECT_ID": "2023-123A", "EPOCH": "2025-12-27T06:41:07.745568", "MEAN_MOTION": 14.79742759, "ECCENTRICITY": 0.00011904, "INCLINATION": 97.9129, "RA_OF_ASC_NODE": 276.816, "ARG_OF_PERICENTER": 81.0465, "MEAN_ANOMALY": 279.0882, "EPHEMERIS_TYPE": 0, "CLASSIFICATION_TYPE": "U", "NORAD_CAT_ID": 57654, "ELEMENT_SET_NO": 999, "REV_AT_EPOCH": 12720, "BSTAR": 0.00022236587, "MEAN_MOTION_DOT": 1.62e-05, "MEAN_MOTION_DDOT": 0}, "tle": {"line1": "1 57654U 23123A   25361.27856187  .00001620  00000+0  22237-3 0  9996", "line2": "2 57654  97.9129 276.8160 0001190  81.0465 279.0882 14.79742759127204"}}, "geometry": {"type": "Point", "coordinates": [102.6636953437093, 34.51286564692125]}}, {"type": "Feature", "properties": {"norad_id": 59065, "name": "PARS 1", "group": "resource", "lat": -51.089629325727756, "lon": 143.54814080721795, "alt_km": 456.1321449284069, "timestamp": "2025-12-27T15:27:10.801219+00:00", "meta": {"OBJECT_NAME": "PARS 1", "OBJECT_ID": "2024-039Q", "EPOCH": "2025-12-27T06:39:37.707264", "MEAN_MOTION": 15.41312112, "ECCENTRICITY": 0.00112726, "INCLINATION": 97.4655, "RA_OF_ASC_NODE": 332.5231, "ARG_OF_PERICENTER": 27.4059, "MEAN_ANOMALY": 332.778, "EPHEMERIS_TYPE": 0, "CLASSIFICATION_TYPE": "U", "NORAD_CAT_ID": 59065, "ELEMENT_SET_NO": 999, "REV_AT_EPOCH": 10212, "BSTAR": 0.00032871307, "MEAN_MOTION_DOT": 0.00013644, "MEAN_MOTION_DDOT": 0}, "tle": {"line1": "1 59065U 24039Q   25361.27751976  .00013644  00000+0  32871-3 0  9995", "line2": "2 59065  97.4655 332.5231 0011272  27.4059 332.7780 15.41312112102129"}}, "geometry": {"type": "Point", "coordinates": [143.54814080721795, -51.089629325727756]}}, {"type": "Feature", "properties": {"norad_id": 59371, "name": "RESURS-P 4", "group": "resource", "lat": -70.33418694171678, "lon": 106.78384259702128, "alt_km": 477.0223106726444, "timestamp": "2025-12-27T15:27:10.801229+00:00", "meta": {"OBJECT_NAME": "RESURS-P 4", "OBJECT_ID": "2024-061A", "EPOCH": "2025-12-27T06:31:16.214016", "MEAN_MOTION": 15.32214889, "ECCENTRICITY": 8.094e-05, "INCLINATION": 97.2562, "RA_OF_ASC_NODE": 307.3063, "ARG_OF_PERICENTER": 94.7089, "MEAN_ANOMALY": 265.4246, "EPHEMERIS_TYPE": 0, "CLASSIFICATION_TYPE": "U", "NORAD_CAT_ID": 59371, "ELEMENT_SET_NO": 999, "REV_AT_EPOCH": 9743, "BSTAR": 0.00015154523, "MEAN_MOTION_DOT": 4.637e-05, "MEAN_MOTION_DDOT": 0}, "tle": {"line1": "1 59371U 24061A   25361.27171544  .00004637  00000+0  15155-3 0  9995", "line2": "2 59371  97.2562 307.3063 0000809  94.7089 265.4246 15.32214889 97439"}}, "geometry": {"type": "Point", "coordinates": [106.78384259702128, -70.33418694171678]}}, {"type": "Feature", "properties": {"norad_id": 59625, "name": "LEGION 1", "group": "resource", "lat": 1.389943879447841, "lon": 75.9712824324374, "alt_km": 519.947802900534, "timestamp": "2025-12-27T15:27:10.801239+00:00", "meta": {"OBJECT_NAME": "LEGION 1", "OBJECT_ID": "2024-081A", "EPOCH": "2025-12-27T05:56:45.717504", "MEAN_MOTION": 15.16623254, "ECCENTRICITY": 0.00036793, "INCLINATION": 97.5192, "RA_OF_ASC_NODE": 75.7622, "ARG_OF_PERICENTER": 249.4941, "MEAN_ANOMALY": 110.5897, "EPHEMERIS_TYPE": 0, "CLASSIFICATION_TYPE": "U", "NORAD_CAT_ID": 59625, "ELEMENT_SET_NO": 999, "REV_AT_EPOCH": 9147, "BSTAR": 0.00028120876, "MEAN_MOTION_DOT": 5.431e-05, "MEAN_MOTION_DDOT": 0}, "tle": {"line1": "1 59625U 24081A   25361.24775136  .00005431  00000+0  28121-3 0  9993", "line2": "2 59625  97.5192  75.7622 0003679 249.4941 110.5897 15.16623254 91476"}}, "geometry": {"type": "Point", "coordinates": [75.9712824324374, 1.389943879447841]}}, {"type": "Feature", "properties": {"norad_id": 59626, "name": "LEGION 2", "group": "resource", "lat": -2.004860986632984, "lon": -104.02191906606586, "alt_km": 516.6285315798959, "timestamp": "2025-12-27T15:27:10.801249+00:00", "meta": {"OBJECT_NAME": "LEGION 2", "OBJECT_ID": "2024-081B", "EPOCH": "2025-12-27T06:44:08.765664", "MEAN_MOTION": 15.16638845, "ECCENTRICITY": 0.00058457, "INCLINATION": 97.5197, "RA_OF_ASC_NODE": 75.8829, "ARG_OF_PERICENTER": 231.0007, "MEAN_ANOMALY": 129.0706, "EPHEMERIS_TYPE": 0, "CLASSIFICATION_TYPE": "U", "NORAD_CAT_ID": 59626, "ELEMENT_SET_NO": 999, "REV_AT_EPOCH": 9148, "BSTAR": 0.00030197841, "MEAN_MOTION_DOT": 5.841e-05, "MEAN_MOTION_DDOT": 0}, "tle": {"line1": "1 59626U 24081B   25361.28065701  .00005841  00000+0  30198-3 0  9990", "line2": "2 59626  97.5197  75.8829 0005845 231.0007 129.0706 15.16638845 91486"}}, "geometry": {"type": "Point", "coordinates": [-104.02191906606586, -2.004860986632984]}}, {"type": "Feature", "properties": {"norad_id": 60182, "name": "ALOS-4 (DAICHI-4)", "group": "resource", "lat": 11.993679672187795, "lon": 94.58278563425321, "alt_km": 632.2133532198513, "timestamp": "2025-12-27T15:27:10.801259+00:00", "meta": {"OBJECT_NAME": "ALOS-4 (DAICHI-4)", "OBJECT_ID": "2024-123A", "EPOCH": "2025-12-26T19:55:12.965952", "MEAN_MOTION": 14.79478137, "ECCENTRICITY": 0.00014191, "INCLINATION": 97.9215, "RA_OF_ASC_NODE": 95.4758, "ARG_OF_PERICENTER": 100.4397, "MEAN_ANOMALY": 259.6975, "EPHEMERIS_TYPE": 0, "CLASSIFICATION_TYPE": "U", "NORAD_CAT_ID": 60182, "ELEMENT_SET_NO": 999, "REV_AT_EPOCH": 8039, "BSTAR": 0.00030778868, "MEAN_MOTION_DOT": 2.248e-05, "MEAN_MOTION_DDOT": 0}, "tle": {"line1": "1 60182U 24123A   25360.83001118  .00002248  00000+0  30779-3 0  9991", "line2": "2 60182  97.9215  95.4758 0001419 100.4397 259.6975 14.79478137 80393"}}, "geometry": {"type": "Point", "coordinates": [94.58278563425321, 11.993679672187795]}}, {"type": "Feature", "properties": {"norad_id": 60452, "name": "LEGION 3", "group": "resource", "lat": -22.229892165465614, "lon": -153.91713438387873, "alt_km": 513.5513632647626, "timestamp": "2025-12-27T15:27:10.801269+00:00", "meta": {"OBJECT_NAME": "LEGION 3", "OBJECT_ID": "2024-146A", "EPOCH": "2025-12-27T02:56:33.227520", "MEAN_MOTION": 15.15909819, "ECCENTRICITY": 0.00157761, "INCLINATION": 45.0004, "RA_OF_ASC_NODE": 233.0201, "ARG_OF_PERICENTER": 274.8666, "MEAN_ANOMALY": 85.0412, "EPHEMERIS_TYPE": 0, "CLASSIFICATION_TYPE": "U", "NORAD_CAT_ID": 60452, "ELEMENT_SET_NO": 999, "REV_AT_EPOCH": 7591, "BSTAR": 0.00033039135, "MEAN_MOTION_DOT": 6.195e-05, "MEAN_MOTION_DDOT": 0}, "tle": {"line1": "1 60452U 24146A   25361.12260680  .00006195  00000+0  33039-3 0  9997", "line2": "2 60452  45.0004 233.0201 0015776 274.8666  85.0412 15.15909819 75918"}}, "geometry": {"type": "Point", "coordinates": [-153.91713438387873, -22.229892165465614]}}, {"type": "Feature", "properties": {"norad_id": 60453, "name": "LEGION 4", "group": "resource", "lat": -22.29426157840501, "lon": -62.16850812216082, "alt_km": 518.2758696808341, "timestamp": "2025-12-27T15:27:10.801280+00:00", "meta": {"OBJECT_NAME": "LEGION 4", "OBJECT_ID": "2024-146B", "EPOCH": "2025-12-27T04:31:30.027072", "MEAN_MOTION": 15.15986372, "ECCENTRICITY": 0.00078109, "INCLINATION": 45.0397, "RA_OF_ASC_NODE": 324.4607, "ARG_OF_PERICENTER": 32.4876, "MEAN_ANOMALY": 327.6483, "EPHEMERIS_TYPE": 0, "CLASSIFICATION_TYPE": "U", "NORAD_CAT_ID": 60453, "ELEMENT_SET_NO": 999, "REV_AT_EPOCH": 7477, "BSTAR": 0.0003702879, "MEAN_MOTION_DOT": 6.976e-05, "MEAN_MOTION_DDOT": 0}, "tle": {"line1": "1 60453U 24146B   25361.18854198  .00006976  00000+0  37029-3 0  9997", "line2": "2 60453  45.0397 324.4607 0007810  32.4876 327.6483 15.15986372 74775"}}, "geometry": {"type": "Point", "coordinates": [-62.16850812216082, -22.29426157840501]}}]}